[{"OBJECT_NAME":"TIANQI-18","OBJECT_ID":"2025-105C","EPOCH":"2026-03-09T22:12:26.656128","MEAN_MOTION":13.99097587,"ECCENTRICITY":0.00119546,"INCLINATION":44.984,"RA_OF_ASC_NODE":103.8187,"ARG_OF_PERICENTER":278.1183,"MEAN_ANOMALY":81.8293,"EPHEMERIS_TYPE":0,"CLASSIFICATION_TYPE":"U","NORAD_CAT_ID":64060,"ELEMENT_SET_NO":999,"REV_AT_EPOCH":4129,"BSTAR":0.00015710679,"MEAN_MOTION_DOT":1.01e-6,"MEAN_MOTION_DDOT":0},{"OBJECT_NAME":"THORAD AGENA D DEB","OBJECT_ID":"1970-025KX","EPOCH":"2026-03-09T17:38:54.106944","MEAN_MOTION":14.1108773,"ECCENTRICITY":0.00442763,"INCLINATION":100.0283,"RA_OF_ASC_NODE":10.1197,"ARG_OF_PERICENTER":179.2383,"MEAN_ANOMALY":180.8859,"EPHEMERIS_TYPE":0,"CLASSIFICATION_TYPE":"U","NORAD_CAT_ID":5392,"ELEMENT_SET_NO":999,"REV_AT_EPOCH":83049,"BSTAR":0.0010533695,"MEAN_MOTION_DOT":1.86e-5,"MEAN_MOTION_DDOT":0}]
